[{"OBJECT_NAME":"STARLINK-31811","OBJECT_ID":"2024-112P","EPOCH":"2026-03-09T10:34:28.495776","MEAN_MOTION":15.30197384,"ECCENTRICITY":0.00012078,"INCLINATION":53.1604,"RA_OF_ASC_NODE":79.4897,"ARG_OF_PERICENTER":84.2619,"MEAN_ANOMALY":275.8519,"EPHEMERIS_TYPE":0,"CLASSIFICATION_TYPE":"U","NORAD_CAT_ID":60051,"ELEMENT_SET_NO":999,"REV_AT_EPOCH":9855,"BSTAR":5.1426985e-5,"MEAN_MOTION_DOT":1.164e-5,"MEAN_MOTION_DDOT":0},{"OBJECT_NAME":"SCS-01 B","OBJECT_ID":"2025-100B","EPOCH":"2026-03-09T21:49:11.508672","MEAN_MOTION":15.3317485,"ECCENTRICITY":0.00088698,"INCLINATION":97.3706,"RA_OF_ASC_NODE":145.9041,"ARG_OF_PERICENTER":288.6157,"MEAN_ANOMALY":71.4122,"EPHEMERIS_TYPE":0,"CLASSIFICATION_TYPE":"U","NORAD_CAT_ID":63983,"ELEMENT_SET_NO":999,"REV_AT_EPOCH":4567,"BSTAR":0.00098809397,"MEAN_MOTION_DOT":0.00031724,"MEAN_MOTION_DDOT":0}]
